OBJECT_NAME,OBJECT_ID,EPOCH,MEAN_MOTION,ECCENTRICITY,INCLINATION,RA_OF_ASC_NODE,ARG_OF_PERICENTER,MEAN_ANOMALY,EPHEMERIS_TYPE,CLASSIFICATION_TYPE,NORAD_CAT_ID,ELEMENT_SET_NO,REV_AT_EPOCH,BSTAR,MEAN_MOTION_DOT,MEAN_MOTION_DDOT
ONEWEB-0398,2021-132K,2026-06-05T00:05:14.978112,13.11417777,.0001777,87.8903,23.4822,93.6267,266.5064,0,U,50478,999,21401,.13421E-2,.488E-5,0
ONEWEB-0399,2021-132L,2026-06-05T01:35:34.969344,13.11418942,.0002288,87.8908,23.4800,77.6839,282.4545,0,U,50479,999,21401,.60621E-3,.228E-5,0
ONEWEB-0400,2021-132M,2026-06-05T00:29:09.505824,13.18684789,.0001766,87.9165,337.8650,95.3053,264.8281,0,U,50480,999,22000,-.16611E-3,-.53E-6,0
ONEWEB-0401,2021-132N,2026-06-05T01:34:42.472704,13.18688750,.0001626,87.9165,337.8535,92.4701,267.6617,0,U,50481,999,22001,-.29497E-3,-.103E-5,0
ONEWEB-0402,2021-132P,2026-06-05T00:41:18.873888,13.18688575,.0001713,87.9167,337.8503,70.9636,289.1681,0,U,50482,999,22003,-.1295E-3,-.38E-6,0
ONEWEB-0403,2021-132Q,2026-06-04T23:28:26.863680,13.18688464,.0001974,87.9165,337.8839,95.9961,264.1396,0,U,50483,999,21998,-.59748E-4,-.11E-6,0
ONEWEB-0404,2021-132R,2026-06-04T15:59:22.879392,13.11417337,.00021028,87.8908,23.5582,86.3606,273.7763,0,U,50484,999,21405,-.16434066E-2,-.57E-5,0
ONEWEB-0405,2021-132S,2026-06-05T01:37:09.784704,13.18686115,.0001668,87.9171,337.8515,105.0987,255.0329,0,U,50485,999,22039,-.26672E-3,-.92E-6,0
ONEWEB-0406,2021-132T,2026-06-04T23:35:44.179872,13.18685227,.0002349,87.9160,337.8844,100.2115,259.9282,0,U,50486,999,22001,-.19627E-3,-.64E-6,0
ONEWEB-0407,2021-132U,2026-06-04T23:26:02.071104,13.18687062,.0001517,87.9169,337.8785,82.4893,277.6411,0,U,50487,999,21995,-.44081E-4,-.4E-7,0
ONEWEB-0409,2021-132V,2026-06-04T15:56:56.186016,13.11417508,.00021542,87.8897,23.5481,75.6004,284.5362,0,U,50488,999,21394,-.12657977E-2,-.436E-5,0
ONEWEB-0412,2021-132W,2026-06-05T00:58:16.994208,13.18688654,.000181,87.9167,337.8741,81.8012,278.3326,0,U,50489,999,22005,.14473E-3,.7E-6,0
ONEWEB-0413,2021-132X,2026-06-05T04:44:05.174304,13.18680850,.0001508,87.9154,337.8427,83.9257,276.2047,0,U,50490,999,22001,-.2739E-3,-.95E-6,0
ONEWEB-0414,2021-132Y,2026-06-05T00:43:43.550688,13.18684453,.0001936,87.9166,337.8560,86.1110,274.0243,0,U,50491,999,22002,.73985E-4,.42E-6,0
ONEWEB-0417,2021-132Z,2026-06-05T00:55:51.856032,13.18684948,.0002019,87.9159,337.8754,91.7000,268.4364,0,U,50492,999,22000,-.5414E-4,-.8E-7,0
ONEWEB-0418,2021-132AA,2026-06-04T23:20:59.168256,13.18686553,.0002147,87.9163,337.8865,96.5597,263.5779,0,U,50493,999,22005,-.44953E-4,-.5E-7,0
ONEWEB-0419,2021-132AB,2026-06-05T01:36:45.376704,13.18666096,.0001834,87.9161,337.8689,109.5162,250.6169,0,U,50494,999,21998,-.71062E-3,-.267E-5,0
ONEWEB-0420,2021-132AC,2026-06-05T00:46:09.182208,13.18684756,.0001606,87.9157,337.8787,91.8770,268.2546,0,U,50495,999,21997,-.91289E-4,-.23E-6,0
ONEWEB-0421,2021-132AD,2026-06-05T00:36:26.045280,13.18693487,.0002202,87.9171,337.8740,79.6545,280.4835,0,U,50496,999,22001,-.1375E-2,-.529E-5,0
ONEWEB-0424,2021-132AE,2026-06-05T01:29:51.359136,13.18689031,.0001883,87.9167,337.8669,108.0234,252.1104,0,U,50497,999,22004,-.13698E-3,-.41E-6,0
ONEWEB-0426,2021-132AF,2026-06-05T00:30:23.643072,13.18688140,.0002424,87.9174,337.8662,84.2413,275.8995,0,U,50498,999,21998,-.20019E-3,-.66E-6,0
ONEWEB-0427,2021-132AG,2026-06-05T01:27:25.749216,13.18687401,.0002073,87.9168,337.8474,90.7540,269.3829,0,U,50499,999,22001,-.70135E-4,-.15E-6,0
ONEWEB-0429,2021-132AH,2026-06-04T23:18:44.779104,13.18685302,.0001733,87.9154,337.8904,94.9286,265.2044,0,U,50500,999,21997,-.13708E-3,-.41E-6,0
ONEWEB-0430,2021-132AJ,2026-06-05T00:51:00.715680,13.18685815,.0001635,87.9158,337.8762,98.5042,261.6276,0,U,50501,999,22002,-.12742E-3,-.37E-6,0
ONEWEB-0432,2021-132AK,2026-06-05T01:38:18.030336,13.18682751,.0001774,87.9167,337.8419,108.6561,251.4763,0,U,50502,999,21998,-.15154E-4,.7E-7,0
ONEWEB-0440,2021-132AL,2026-06-04T23:30:52.670592,13.18684734,.0001746,87.9165,337.8817,87.1227,273.0105,0,U,50503,999,21996,.10392E-3,.54E-6,0
ONEWEB-0450,2021-132AM,2026-06-04T23:21:22.883328,13.18688322,.0001545,87.9154,337.8903,91.6254,268.5055,0,U,50504,999,21999,-.19734E-3,-.65E-6,0
ONEWEB-0410,2022-012A,2026-06-05T01:37:10.660800,13.17647674,.0003162,87.9152,8.2672,84.3155,275.8337,0,U,51622,999,21210,-.20348E-4,.5E-7,0
ONEWEB-0411,2022-012B,2026-06-04T15:26:01.498560,13.10377974,.0001398,87.8849,38.7646,92.1017,268.0270,0,U,51623,999,20764,-.17603992E-3,-.49E-6,0
ONEWEB-0415,2022-012C,2026-06-04T17:11:12.073344,13.10378067,.0001693,87.8851,38.7497,94.6857,265.4464,0,U,51624,999,20765,-.55422E-3,-.181E-5,0
