[
  {
    "name": "ONEWEB-0398",
    "noradId": "50478",
    "line1": "1 50478U 21132K   26156.00364558  .00000488  00000+0  13421-2 0  9996",
    "line2": "2 50478  87.8903  23.4822 0001777  93.6267 266.5064 13.11417777214013"
  },
  {
    "name": "ONEWEB-0399",
    "noradId": "50479",
    "line1": "1 50479U 21132L   26156.06637696  .00000228  00000+0  60621-3 0  9996",
    "line2": "2 50479  87.8908  23.4800 0002288  77.6839 282.4545 13.11418942214016"
  },
  {
    "name": "ONEWEB-0400",
    "noradId": "50480",
    "line1": "1 50480U 21132M   26156.02024891 -.00000053  00000+0 -16611-3 0  9999",
    "line2": "2 50480  87.9165 337.8650 0001766  95.3053 264.8281 13.18684789220002"
  },
  {
    "name": "ONEWEB-0401",
    "noradId": "50481",
    "line1": "1 50481U 21132N   26156.06576936 -.00000103  00000+0 -29497-3 0  9998",
    "line2": "2 50481  87.9165 337.8535 0001626  92.4701 267.6617 13.18688750220015"
  },
  {
    "name": "ONEWEB-0402",
    "noradId": "50482",
    "line1": "1 50482U 21132P   26156.02869067 -.00000038  00000+0 -12950-3 0  9998",
    "line2": "2 50482  87.9167 337.8503 0001713  70.9636 289.1681 13.18688575220035"
  },
  {
    "name": "ONEWEB-0403",
    "noradId": "50483",
    "line1": "1 50483U 21132Q   26155.97808870 -.00000011  00000+0 -59748-4 0  9995",
    "line2": "2 50483  87.9165 337.8839 0001974  95.9961 264.1396 13.18688464219988"
  },
  {
    "name": "ONEWEB-0404",
    "noradId": "50484",
    "line1": "1 50484U 21132R   26155.66623703 -.00000570  00000+0 -16434-2 0  9995",
    "line2": "2 50484  87.8908  23.5582 0002102  86.3606 273.7763 13.11417337214050"
  },
  {
    "name": "ONEWEB-0405",
    "noradId": "50485",
    "line1": "1 50485U 21132S   26156.06747436 -.00000092  00000+0 -26672-3 0  9996",
    "line2": "2 50485  87.9171 337.8515 0001668 105.0987 255.0329 13.18686115220392"
  },
  {
    "name": "ONEWEB-0406",
    "noradId": "50486",
    "line1": "1 50486U 21132T   26155.98315023 -.00000064  00000+0 -19627-3 0  9991",
    "line2": "2 50486  87.9160 337.8844 0002349 100.2115 259.9282 13.18685227220016"
  },
  {
    "name": "ONEWEB-0407",
    "noradId": "50487",
    "line1": "1 50487U 21132U   26155.97641286 -.00000004  00000+0 -44081-4 0  9991",
    "line2": "2 50487  87.9169 337.8785 0001517  82.4893 277.6411 13.18687062219951"
  },
  {
    "name": "ONEWEB-0409",
    "noradId": "50488",
    "line1": "1 50488U 21132V   26155.66453919 -.00000436  00000+0 -12658-2 0  9994",
    "line2": "2 50488  87.8897  23.5481 0002154  75.6004 284.5362 13.11417508213941"
  },
  {
    "name": "ONEWEB-0412",
    "noradId": "50489",
    "line1": "1 50489U 21132W   26156.04047447  .00000070  00000+0  14473-3 0  9993",
    "line2": "2 50489  87.9167 337.8741 0001810  81.8012 278.3326 13.18688654220059"
  },
  {
    "name": "ONEWEB-0413",
    "noradId": "50490",
    "line1": "1 50490U 21132X   26156.19728211 -.00000095  00000+0 -27390-3 0  9997",
    "line2": "2 50490  87.9154 337.8427 0001508  83.9257 276.2047 13.18680850220019"
  },
  {
    "name": "ONEWEB-0414",
    "noradId": "50491",
    "line1": "1 50491U 21132Y   26156.03036517  .00000042  00000+0  73985-4 0  9994",
    "line2": "2 50491  87.9166 337.8560 0001936  86.1110 274.0243 13.18684453220027"
  },
  {
    "name": "ONEWEB-0417",
    "noradId": "50492",
    "line1": "1 50492U 21132Z   26156.03879463 -.00000008  00000+0 -54140-4 0  9996",
    "line2": "2 50492  87.9159 337.8754 0002019  91.7000 268.4364 13.18684948220006"
  },
  {
    "name": "ONEWEB-0418",
    "noradId": "50493",
    "line1": "1 50493U 21132AA  26155.97290704 -.00000005  00000+0 -44953-4 0  9992",
    "line2": "2 50493  87.9163 337.8865 0002147  96.5597 263.5779 13.18686553220056"
  },
  {
    "name": "ONEWEB-0419",
    "noradId": "50494",
    "line1": "1 50494U 21132AB  26156.06719186 -.00000267  00000+0 -71062-3 0  9994",
    "line2": "2 50494  87.9161 337.8689 0001834 109.5162 250.6169 13.18666096219984"
  },
  {
    "name": "ONEWEB-0420",
    "noradId": "50495",
    "line1": "1 50495U 21132AC  26156.03205072 -.00000023  00000+0 -91289-4 0  9990",
    "line2": "2 50495  87.9157 337.8787 0001606  91.8770 268.2546 13.18684756219970"
  },
  {
    "name": "ONEWEB-0421",
    "noradId": "50496",
    "line1": "1 50496U 21132AD  26156.02530145 -.00000529  00000+0 -13750-2 0  9998",
    "line2": "2 50496  87.9171 337.8740 0002202  79.6545 280.4835 13.18693487220018"
  },
  {
    "name": "ONEWEB-0424",
    "noradId": "50497",
    "line1": "1 50497U 21132AE  26156.06239999 -.00000041  00000+0 -13698-3 0  9997",
    "line2": "2 50497  87.9167 337.8669 0001883 108.0234 252.1104 13.18689031220048"
  },
  {
    "name": "ONEWEB-0426",
    "noradId": "50498",
    "line1": "1 50498U 21132AF  26156.02110698 -.00000066  00000+0 -20019-3 0  9990",
    "line2": "2 50498  87.9174 337.8662 0002424  84.2413 275.8995 13.18688140219987"
  },
  {
    "name": "ONEWEB-0427",
    "noradId": "50499",
    "line1": "1 50499U 21132AG  26156.06071469 -.00000015  00000+0 -70135-4 0  9996",
    "line2": "2 50499  87.9168 337.8474 0002073  90.7540 269.3829 13.18687401220014"
  },
  {
    "name": "ONEWEB-0429",
    "noradId": "50500",
    "line1": "1 50500U 21132AH  26155.97135161 -.00000041  00000+0 -13708-3 0  9999",
    "line2": "2 50500  87.9154 337.8904 0001733  94.9286 265.2044 13.18685302219970"
  },
  {
    "name": "ONEWEB-0430",
    "noradId": "50501",
    "line1": "1 50501U 21132AJ  26156.03542495 -.00000037  00000+0 -12742-3 0  9992",
    "line2": "2 50501  87.9158 337.8762 0001635  98.5042 261.6276 13.18685815220022"
  },
  {
    "name": "ONEWEB-0432",
    "noradId": "50502",
    "line1": "1 50502U 21132AK  26156.06826424  .00000007  00000+0 -15154-4 0  9990",
    "line2": "2 50502  87.9167 337.8419 0001774 108.6561 251.4763 13.18682751219982"
  },
  {
    "name": "ONEWEB-0440",
    "noradId": "50503",
    "line1": "1 50503U 21132AL  26155.97977628  .00000054  00000+0  10392-3 0  9992",
    "line2": "2 50503  87.9165 337.8817 0001746  87.1227 273.0105 13.18684734219963"
  },
  {
    "name": "ONEWEB-0450",
    "noradId": "50504",
    "line1": "1 50504U 21132AM  26155.97318152 -.00000065  00000+0 -19734-3 0  9997",
    "line2": "2 50504  87.9154 337.8903 0001545  91.6254 268.5055 13.18688322219998"
  },
  {
    "name": "ONEWEB-0410",
    "noradId": "51622",
    "line1": "1 51622U 22012A   26156.06748450  .00000005  00000+0 -20348-4 0  9993",
    "line2": "2 51622  87.9152   8.2672 0003162  84.3155 275.8337 13.17647674212100"
  },
  {
    "name": "ONEWEB-0411",
    "noradId": "51623",
    "line1": "1 51623U 22012B   26155.64307290 -.00000049  00000+0 -17604-3 0  9999",
    "line2": "2 51623  87.8849  38.7646 0001398  92.1017 268.0270 13.10377974207644"
  },
  {
    "name": "ONEWEB-0415",
    "noradId": "51624",
    "line1": "1 51624U 22012C   26155.71611196 -.00000181  00000+0 -55422-3 0  9998",
    "line2": "2 51624  87.8851  38.7497 0001693  94.6857 265.4464 13.10378067207650"
  }
]